{
  "type": "FeatureCollection",
  "features": [
    {
      "type": "Feature",
      "properties": {
        "norad_id": 35614,
        "name": "COSMOS 2251 DEB",
        "group": "cosmos-2251-debris",
        "lat": -72.63405680798775,
        "lon": -83.1231816730819,
        "alt_km": 665.0507562985131,
        "timestamp": "2025-12-04T07:39:36.528045+00:00",
        "meta_object_name": "COSMOS 2251 DEB",
        "meta_object_id": "1993-036ANH",
        "meta_epoch": "2025-11-28T17:49:08.774688",
        "meta_mean_motion": 14.66804035,
        "meta_eccentricity": 0.0076739,
        "meta_inclination": 73.9598,
        "meta_ra_of_asc_node": 354.6008,
        "meta_arg_of_pericenter": 212.3283,
        "meta_mean_anomaly": 147.3173,
        "meta_ephemeris_type": 0,
        "meta_classification_type": "U",
        "meta_norad_cat_id": 35614,
        "meta_element_set_no": 999,
        "meta_rev_at_epoch": 87524,
        "meta_bstar": 0.00086232481,
        "meta_mean_motion_dot": 4.997e-05,
        "meta_mean_motion_ddot": 0,
        "tle_line1": "1 35614U 93036ANH 25332.74246267  .00004997  00000+0  86232-3 0  9995",
        "tle_line2": "2 35614  73.9598 354.6008 0076739 212.3283 147.3173 14.66804035875240"
      },
      "geometry": {
        "type": "Point",
        "coordinates": [
          -83.1231816730819,
          -72.63405680798775
        ]
      }
    },
    {
      "type": "Feature",
      "properties": {
        "norad_id": 35645,
        "name": "COSMOS 2251 DEB",
        "group": "cosmos-2251-debris",
        "lat": -67.28702618283711,
        "lon": 60.09955195318462,
        "alt_km": 702.7325252650007,
        "timestamp": "2025-12-04T07:39:36.528054+00:00",
        "meta_object_name": "COSMOS 2251 DEB",
        "meta_object_id": "1993-036ANL",
        "meta_epoch": "2025-12-01T15:12:41.067360",
        "meta_mean_motion": 14.45294467,
        "meta_eccentricity": 0.00693993,
        "meta_inclination": 73.964,
        "meta_ra_of_asc_node": 108.5275,
        "meta_arg_of_pericenter": 267.6701,
        "meta_mean_anomaly": 91.651,
        "meta_ephemeris_type": 0,
        "meta_classification_type": "U",
        "meta_norad_cat_id": 35645,
        "meta_element_set_no": 999,
        "meta_rev_at_epoch": 86611,
        "meta_bstar": 0.0022107239,
        "meta_mean_motion_dot": 7.975e-05,
        "meta_mean_motion_ddot": 0,
        "tle_line1": "1 35645U 93036ANL 25335.63380865  .00007975  00000+0  22107-2 0  9992",
        "tle_line2": "2 35645  73.9640 108.5275 0069399 267.6701  91.6510 14.45294467866117"
      },
      "geometry": {
        "type": "Point",
        "coordinates": [
          60.09955195318462,
          -67.28702618283711
        ]
      }
    },
    {
      "type": "Feature",
      "properties": {
        "norad_id": 35646,
        "name": "COSMOS 2251 DEB",
        "group": "cosmos-2251-debris",
        "lat": 42.12523626776584,
        "lon": -125.77764125147043,
        "alt_km": 853.6430841738893,
        "timestamp": "2025-12-04T07:39:36.528063+00:00",
        "meta_object_name": "COSMOS 2251 DEB",
        "meta_object_id": "1993-036ANM",
        "meta_epoch": "2025-11-30T17:47:23.483328",
        "meta_mean_motion": 13.40777703,
        "meta_eccentricity": 0.04579187,
        "meta_inclination": 73.8717,
        "meta_ra_of_asc_node": 75.0665,
        "meta_arg_of_pericenter": 187.2005,
        "meta_mean_anomaly": 328.3577,
        "meta_ephemeris_type": 0,
        "meta_classification_type": "U",
        "meta_norad_cat_id": 35646,
        "meta_element_set_no": 999,
        "meta_rev_at_epoch": 81697,
        "meta_bstar": 0.001266768,
        "meta_mean_motion_dot": 1.273e-05,
        "meta_mean_motion_ddot": 0,
        "tle_line1": "1 35646U 93036ANM 25334.74124402  .00001273  00000+0  12668-2 0  9993",
        "tle_line2": "2 35646  73.8717  75.0665 0457918 187.2005 328.3577 13.40777703816970"
      },
      "geometry": {
        "type": "Point",
        "coordinates": [
          -125.77764125147043,
          42.12523626776584
        ]
      }
    },
    {
      "type": "Feature",
      "properties": {
        "norad_id": 35647,
        "name": "COSMOS 2251 DEB",
        "group": "cosmos-2251-debris",
        "lat": 51.32688998688304,
        "lon": -28.792248930107995,
        "alt_km": 709.7680122488991,
        "timestamp": "2025-12-04T07:39:36.528072+00:00",
        "meta_object_name": "COSMOS 2251 DEB",
        "meta_object_id": "1993-036ANN",
        "meta_epoch": "2025-11-30T05:16:45.601536",
        "meta_mean_motion": 14.43522503,
        "meta_eccentricity": 0.00448795,
        "meta_inclination": 74.0228,
        "meta_ra_of_asc_node": 317.854,
        "meta_arg_of_pericenter": 60.3211,
        "meta_mean_anomaly": 300.2402,
        "meta_ephemeris_type": 0,
        "meta_classification_type": "U",
        "meta_norad_cat_id": 35647,
        "meta_element_set_no": 999,
        "meta_rev_at_epoch": 67483,
        "meta_bstar": 0.00078586372,
        "meta_mean_motion_dot": 2.667e-05,
        "meta_mean_motion_ddot": 0,
        "tle_line1": "1 35647U 93036ANN 25334.21997224  .00002667  00000+0  78586-3 0  9996",
        "tle_line2": "2 35647  74.0228 317.8540 0044879  60.3211 300.2402 14.43522503674831"
      },
      "geometry": {
        "type": "Point",
        "coordinates": [
          -28.792248930107995,
          51.32688998688304
        ]
      }
    },
    {
      "type": "Feature",
      "properties": {
        "norad_id": 35650,
        "name": "COSMOS 2251 DEB",
        "group": "cosmos-2251-debris",
        "lat": 71.68277130585976,
        "lon": 155.7716433200911,
        "alt_km": 601.882359575061,
        "timestamp": "2025-12-04T07:39:36.528081+00:00",
        "meta_object_name": "COSMOS 2251 DEB",
        "meta_object_id": "1993-036ANR",
        "meta_epoch": "2025-12-03T03:49:53.171616",
        "meta_mean_motion": 14.83206379,
        "meta_eccentricity": 0.00144518,
        "meta_inclination": 74.0473,
        "meta_ra_of_asc_node": 37.8389,
        "meta_arg_of_pericenter": 91.0961,
        "meta_mean_anomaly": 299.114,
        "meta_ephemeris_type": 0,
        "meta_classification_type": "U",
        "meta_norad_cat_id": 35650,
        "meta_element_set_no": 999,
        "meta_rev_at_epoch": 87492,
        "meta_bstar": 0.0022586801,
        "meta_mean_motion_dot": 0.000185,
        "meta_mean_motion_ddot": 0,
        "tle_line1": "1 35650U 93036ANR 25337.15964319  .00018500  00000+0  22587-2 0  9997",
        "tle_line2": "2 35650  74.0473  37.8389 0014451  91.0961 299.1140 14.83206379874924"
      },
      "geometry": {
        "type": "Point",
        "coordinates": [
          155.7716433200911,
          71.68277130585976
        ]
      }
    },
    {
      "type": "Feature",
      "properties": {
        "norad_id": 35660,
        "name": "COSMOS 2251 DEB",
        "group": "cosmos-2251-debris",
        "lat": -26.73104320370548,
        "lon": 140.75439345590348,
        "alt_km": 720.7260282592224,
        "timestamp": "2025-12-04T07:39:36.528090+00:00",
        "meta_object_name": "COSMOS 2251 DEB",
        "meta_object_id": "1993-036APB",
        "meta_epoch": "2025-11-30T04:59:11.152608",
        "meta_mean_motion": 14.49858309,
        "meta_eccentricity": 0.00181724,
        "meta_inclination": 74.0397,
        "meta_ra_of_asc_node": 156.7551,
        "meta_arg_of_pericenter": 306.9367,
        "meta_mean_anomaly": 174.3672,
        "meta_ephemeris_type": 0,
        "meta_classification_type": "U",
        "meta_norad_cat_id": 35660,
        "meta_element_set_no": 999,
        "meta_rev_at_epoch": 65689,
        "meta_bstar": 0.00042239347,
        "meta_mean_motion_dot": 1.607e-05,
        "meta_mean_motion_ddot": 0,
        "tle_line1": "1 35660U 93036APB 25334.20776797  .00001607  00000+0  42239-3 0  9999",
        "tle_line2": "2 35660  74.0397 156.7551 0018172 306.9367 174.3672 14.49858309656890"
      },
      "geometry": {
        "type": "Point",
        "coordinates": [
          140.75439345590348,
          -26.73104320370548
        ]
      }
    },
    {
      "type": "Feature",
      "properties": {
        "norad_id": 35661,
        "name": "COSMOS 2251 DEB",
        "group": "cosmos-2251-debris",
        "lat": -53.47728936428373,
        "lon": 73.73590636730829,
        "alt_km": 627.2395618865294,
        "timestamp": "2025-12-04T07:39:36.528099+00:00",
        "meta_object_name": "COSMOS 2251 DEB",
        "meta_object_id": "1993-036APC",
        "meta_epoch": "2025-12-01T15:17:54.099744",
        "meta_mean_motion": 14.86228294,
        "meta_eccentricity": 0.00894294,
        "meta_inclination": 74.0123,
        "meta_ra_of_asc_node": 101.8533,
        "meta_arg_of_pericenter": 208.6797,
        "meta_mean_anomaly": 150.945,
        "meta_ephemeris_type": 0,
        "meta_classification_type": "U",
        "meta_norad_cat_id": 35661,
        "meta_element_set_no": 999,
        "meta_rev_at_epoch": 87703,
        "meta_bstar": 0.0012388204,
        "meta_mean_motion_dot": 0.00011691,
        "meta_mean_motion_ddot": 0,
        "tle_line1": "1 35661U 93036APC 25335.63743171  .00011691  00000+0  12388-2 0  9993",
        "tle_line2": "2 35661  74.0123 101.8533 0089429 208.6797 150.9450 14.86228294877037"
      },
      "geometry": {
        "type": "Point",
        "coordinates": [
          73.73590636730829,
          -53.47728936428373
        ]
      }
    }
  ]
}